QZS-1R                  
1 49336U 21096A   23331.74301766 -.00000264  00000+0  00000+0 0  9990
2 49336  35.5310  93.6238 0751539 270.7930 104.2128  1.00263783  7660
